$$SOE
2460742.500000000, A.D. 2025-Mar-08 00:00:00.0000, 2.199132115318722E+09, 5.202554486840228E+09, 9.963855099470465E+08,
2460749.500000000, A.D. 2025-Mar-15 00:00:00.0000, 2.196704151251852E+09, 5.204572336261313E+09, 9.968836315713229E+08,
2460756.500000000, A.D. 2025-Mar-22 00:00:00.0000, 2.194275625744731E+09, 5.206588761898375E+09, 9.973814960633550E+08,
2460763.500000000, A.D. 2025-Mar-29 00:00:00.0000, 2.191846540932477E+09, 5.208603768376013E+09, 9.978791035434494E+08,
2460770.500000000, A.D. 2025-Apr-05 00:00:00.0000, 2.189416897751326E+09, 5.210617359681370E+09, 9.983764541683717E+08,
2460777.500000000, A.D. 2025-Apr-12 00:00:00.0000, 2.186986696540762E+09, 5.212629539203646E+09, 9.988735480864961E+08,
2460784.500000000, A.D. 2025-Apr-19 00:00:00.0000, 2.184555937227067E+09, 5.214640309880453E+09, 9.993703854402292E+08,
2460791.500000000, A.D. 2025-Apr-26 00:00:00.0000, 2.182124619359955E+09, 5.216649674248336E+09, 9.998669663739660E+08,
2460798.500000000, A.D. 2025-May-03 00:00:00.0000, 2.179692742115976E+09, 5.218657634417004E+09, 1.000363291038466E+09,
2460805.500000000, A.D. 2025-May-10 00:00:00.0000, 2.177260304297258E+09, 5.220664191976293E+09, 1.000859359589577E+09,
2460812.500000000, A.D. 2025-May-17 00:00:00.0000, 2.174827304362348E+09, 5.222669347795161E+09, 1.001355172174428E+09,
2460819.500000000, A.D. 2025-May-24 00:00:00.0000, 2.172393740663037E+09, 5.224673101658508E+09, 1.001850728884624E+09,
2460826.500000000, A.D. 2025-May-31 00:00:00.0000, 2.169959612304987E+09, 5.226675452053070E+09, 1.002346029663465E+09,
2460833.500000000, A.D. 2025-Jun-07 00:00:00.0000, 2.167524920231165E+09, 5.228676397307409E+09, 1.002841074302409E+09,
2460840.500000000, A.D. 2025-Jun-14 00:00:00.0000, 2.165089666163591E+09, 5.230675937419317E+09, 1.003335862689161E+09,
2460847.500000000, A.D. 2025-Jun-21 00:00:00.0000, 2.162653850620114E+09, 5.232674073299487E+09, 1.003830394928468E+09,
2460854.500000000, A.D. 2025-Jun-28 00:00:00.0000, 2.160217473134443E+09, 5.234670805196291E+09, 1.004324671192958E+09,
2460861.500000000, A.D. 2025-Jul-05 00:00:00.0000, 2.157780533162702E+09, 5.236666132458287E+09, 1.004818691619378E+09,
2460868.500000000, A.D. 2025-Jul-12 00:00:00.0000, 2.155343030485516E+09, 5.238660053829291E+09, 1.005312456293766E+09,
2460875.500000000, A.D. 2025-Jul-19 00:00:00.0000, 2.152904965295179E+09, 5.240652567701074E+09, 1.005805965261192E+09,
2460882.500000000, A.D. 2025-Jul-26 00:00:00.0000, 2.150466338177867E+09, 5.242643672267258E+09, 1.006299218536315E+09,
2460889.500000000, A.D. 2025-Aug-02 00:00:00.0000, 2.148027150056246E+09, 5.244633365600250E+09, 1.006792216110607E+09,
2460896.500000000, A.D. 2025-Aug-09 00:00:00.0000, 2.145587402115924E+09, 5.246621645636777E+09, 1.007284957953063E+09,
2460903.500000000, A.D. 2025-Aug-16 00:00:00.0000, 2.143147095792671E+09, 5.248608510009081E+09, 1.007777443992338E+09,
2460910.500000000, A.D. 2025-Aug-23 00:00:00.0000, 2.140706233113038E+09, 5.250593955738538E+09, 1.008269674055027E+09,
2460917.500000000, A.D. 2025-Aug-30 00:00:00.0000, 2.138264817717320E+09, 5.252577979505968E+09, 1.008761647788514E+09,
2460924.500000000, A.D. 2025-Sep-06 00:00:00.0000, 2.135822855146715E+09, 5.254560579499112E+09, 1.009253364780437E+09,
2460931.500000000, A.D. 2025-Sep-13 00:00:00.0000, 2.133380350723947E+09, 5.256541756354548E+09, 1.009744824825379E+09,
2460938.500000000, A.D. 2025-Sep-20 00:00:00.0000, 2.130937308300575E+09, 5.258521511549772E+09, 1.010236027904408E+09,
2460945.500000000, A.D. 2025-Sep-27 00:00:00.0000, 2.128493730929523E+09, 5.260499846357193E+09, 1.010726974034899E+09,
2460952.500000000, A.D. 2025-Oct-04 00:00:00.0000, 2.126049621446164E+09, 5.262476761899419E+09, 1.011217663219826E+09,
2460959.500000000, A.D. 2025-Oct-11 00:00:00.0000, 2.123604982584287E+09, 5.264452259363037E+09, 1.011708095453862E+09,
2460966.500000000, A.D. 2025-Oct-18 00:00:00.0000, 2.121159816910616E+09, 5.266426340096736E+09, 1.012198270737866E+09,
2460973.500000000, A.D. 2025-Oct-25 00:00:00.0000, 2.118714126717413E+09, 5.268399005605091E+09, 1.012688189089831E+09,
2460980.500000000, A.D. 2025-Nov-01 00:00:00.0000, 2.116267913912571E+09, 5.270370257453913E+09, 1.013177850549843E+09,
2460987.500000000, A.D. 2025-Nov-08 00:00:00.0000, 2.113821179941699E+09, 5.272340097056205E+09, 1.013667255173154E+09,
2460994.500000000, A.D. 2025-Nov-15 00:00:00.0000, 2.111373925890030E+09, 5.274308525280622E+09, 1.014156402992834E+09,
2461001.500000000, A.D. 2025-Nov-22 00:00:00.0000, 2.108926153166753E+09, 5.276275542103022E+09, 1.014645293932825E+09,
2461008.500000000, A.D. 2025-Nov-29 00:00:00.0000, 2.106477864618531E+09, 5.278241147436496E+09, 1.015133927778006E+09,
2461015.500000000, A.D. 2025-Dec-06 00:00:00.0000, 2.104029063794718E+09, 5.280205343004325E+09, 1.015622304398825E+09,
2461022.500000000, A.D. 2025-Dec-13 00:00:00.0000, 2.101579752797894E+09, 5.282168131885812E+09, 1.016110423915145E+09,
2461029.500000000, A.D. 2025-Dec-20 00:00:00.0000, 2.099129932212866E+09, 5.284129516758577E+09, 1.016598286562395E+09,
2461036.500000000, A.D. 2025-Dec-27 00:00:00.0000, 2.096679602040326E+09, 5.286089499428998E+09, 1.017085892570205E+09,
2461043.500000000, A.D. 2026-Jan-03 00:00:00.0000, 2.094228762175938E+09, 5.288048081035799E+09, 1.017573242137065E+09,
2461050.500000000, A.D. 2026-Jan-10 00:00:00.0000, 2.091777412544613E+09, 5.290005262248588E+09, 1.018060335435465E+09,
2461057.500000000, A.D. 2026-Jan-17 00:00:00.0000, 2.089325553122535E+09, 5.291961043370562E+09, 1.018547172618789E+09,
2461064.500000000, A.D. 2026-Jan-24 00:00:00.0000, 2.086873183924886E+09, 5.293915424368959E+09, 1.019033753824741E+09,
2461071.500000000, A.D. 2026-Jan-31 00:00:00.0000, 2.084420304982718E+09, 5.295868404826757E+09, 1.019520079172668E+09,
2461078.500000000, A.D. 2026-Feb-07 00:00:00.0000, 2.081966916370493E+09, 5.297819983759199E+09, 1.020006148744564E+09,
2461085.500000000, A.D. 2026-Feb-14 00:00:00.0000, 2.079513018537341E+09, 5.299770159280760E+09, 1.020491962525381E+09,
2461092.500000000, A.D. 2026-Feb-21 00:00:00.0000, 2.077058613329605E+09, 5.301718928700354E+09, 1.020977520314390E+09,
2461099.500000000, A.D. 2026-Feb-28 00:00:00.0000, 2.074603704619840E+09, 5.303666290198859E+09, 1.021462821801429E+09,
2461106.500000000, A.D. 2026-Mar-07 00:00:00.0000, 2.072148296483694E+09, 5.305612244139395E+09, 1.021947866837584E+09,
2461113.500000000, A.D. 2026-Mar-14 00:00:00.0000, 2.069692391700407E+09, 5.307556791677694E+09, 1.022432655455148E+09,
2461120.500000000, A.D. 2026-Mar-21 00:00:00.0000, 2.067235992359794E+09, 5.309499933570693E+09, 1.022917187710287E+09,
2461127.500000000, A.D. 2026-Mar-28 00:00:00.0000, 2.064779100566321E+09, 5.311441670211993E+09, 1.023401463616886E+09,
2461134.500000000, A.D. 2026-Apr-04 00:00:00.0000, 2.062321718636551E+09, 5.313382001928544E+09, 1.023885483148198E+09,
2461141.500000000, A.D. 2026-Apr-11 00:00:00.0000, 2.059863849063886E+09, 5.315320929178609E+09, 1.024369246251924E+09,
2461148.500000000, A.D. 2026-Apr-18 00:00:00.0000, 2.057405494410014E+09, 5.317258452644272E+09, 1.024852752863795E+09,
2461155.500000000, A.D. 2026-Apr-25 00:00:00.0000, 2.054946657169108E+09, 5.319194573233212E+09, 1.025336002916835E+09,
2461162.500000000, A.D. 2026-May-02 00:00:00.0000, 2.052487339635826E+09, 5.321129291960090E+09, 1.025818996341253E+09,
2461169.500000000, A.D. 2026-May-09 00:00:00.0000, 2.050027543902077E+09, 5.323062609641335E+09, 1.026301733038334E+09,
2461176.500000000, A.D. 2026-May-16 00:00:00.0000, 2.047567272360887E+09, 5.324994526541719E+09, 1.026784212805032E+09,
2461183.500000000, A.D. 2026-May-23 00:00:00.0000, 2.045106528769477E+09, 5.326925042995079E+09, 1.027266435288196E+09,
2461190.500000000, A.D. 2026-May-30 00:00:00.0000, 2.042645317793322E+09, 5.328854161318840E+09, 1.027748400185128E+09,
2461197.500000000, A.D. 2026-Jun-06 00:00:00.0000, 2.040183642713973E+09, 5.330781885748734E+09, 1.028230107452038E+09,
2461204.500000000, A.D. 2026-Jun-13 00:00:00.0000, 2.037721504966677E+09, 5.332708220592738E+09, 1.028711557200225E+09,
2461211.500000000, A.D. 2026-Jun-20 00:00:00.0000, 2.035258905006758E+09, 5.334633169530348E+09, 1.029192749564926E+09,
2461218.500000000, A.D. 2026-Jun-27 00:00:00.0000, 2.032795842806420E+09, 5.336556735717342E+09, 1.029673684674532E+09,
2461225.500000000, A.D. 2026-Jul-04 00:00:00.0000, 2.030332317981841E+09, 5.338478921921218E+09, 1.030154362656617E+09,
2461232.500000000, A.D. 2026-Jul-11 00:00:00.0000, 2.027868329804491E+09, 5.340399730555422E+09, 1.030634783646405E+09,
2461239.500000000, A.D. 2026-Jul-18 00:00:00.0000, 2.025403877189356E+09, 5.342319163638144E+09, 1.031114947791030E+09,
2461246.500000000, A.D. 2026-Jul-25 00:00:00.0000, 2.022938958684518E+09, 5.344237222678522E+09, 1.031594855247336E+09,
2461253.500000000, A.D. 2026-Aug-01 00:00:00.0000, 2.020473572510144E+09, 5.346153908442142E+09, 1.032074506164666E+09,
2461260.500000000, A.D. 2026-Aug-08 00:00:00.0000, 2.018007716861722E+09, 5.348069220560073E+09, 1.032553900629867E+09,
2461267.500000000, A.D. 2026-Aug-15 00:00:00.0000, 2.015541390892528E+09, 5.349983157431961E+09, 1.033033038573159E+09,
2461274.500000000, A.D. 2026-Aug-22 00:00:00.0000, 2.013074595614142E+09, 5.351895717644569E+09, 1.033511919804401E+09,
2461281.500000000, A.D. 2026-Aug-29 00:00:00.0000, 2.010607332425844E+09, 5.353806901533241E+09, 1.033990544277516E+09,
2461288.500000000, A.D. 2026-Sep-05 00:00:00.0000, 2.008139601406365E+09, 5.355716710018312E+09, 1.034468912152979E+09,
2461295.500000000, A.D. 2026-Sep-12 00:00:00.0000, 2.005671401822864E+09, 5.357625143212234E+09, 1.034947023637182E+09,
2461302.500000000, A.D. 2026-Sep-19 00:00:00.0000, 2.003202732983268E+09, 5.359532200341600E+09, 1.035424878896746E+09,
2461309.500000000, A.D. 2026-Sep-26 00:00:00.0000, 2.000733594573292E+09, 5.361437880051207E+09, 1.035902478050319E+09,
2461316.500000000, A.D. 2026-Oct-03 00:00:00.0000, 1.998263986726686E+09, 5.363342180639409E+09, 1.036379821178250E+09,
$$EOE